KUIPER-00089            
1 64834U 25151U   25286.00002315 -.00004986  00000+0 -26344-3 0  9993
2 64834  51.8895 221.5379 0003575 116.1198 268.8284 15.12839121  4666
KUIPER-00090            
1 64835U 25151V   25286.00002315  .00002577  00000+0  10376-3 0  9994
2 64835  51.8792 219.7415 0008018 123.6123  24.4331 15.28651671  3893
KUIPER-00091            
1 64836U 25151W   25286.00002315  .00001066  00000+0  68897-4 0  9999
2 64836  51.8801 220.6832 0008466 122.4286 252.3014 15.17070875  3724
KUIPER-00092            
1 64837U 25151X   25286.00002315 -.00905197  00000+0 -84191-1 0  9992
2 64837  51.8917 224.3679 0008463 103.2313 335.1435 14.96489809  1720
KUIPER-00093            
1 64838U 25151Y   25286.00002315 -.00080987  00000+0 -87642-2 0  9999
2 64838  51.8959 226.4072 0015311 117.6070 247.7690 14.88133164  1391
KUIPER-00094            
1 64839U 25151Z   25286.00002315 -.00466180  00000+0 -28767-1 0  9995
2 64839  51.8880 221.6450 0007757 121.3018 126.3472 15.11730904  4318
KUIPER-00081            
1 65132U 25171A   25285.89731364  .00047604  00000+0  12684-2 0  9999
2 65132  51.8746 103.5025 0004986 344.1886  15.8945 15.37690718 10849
KUIPER-00088            
1 65133U 25171B   25286.00002315 -.00046806  00000+0 -20460-2 0  9997
2 65133  51.8845 103.9329 0006927 331.9880 149.1533 15.21558571  4723
